{
  "norad_id": 66887,
  "name": "STARLINK-35925",
  "history": [
    {
      "epoch": "2026-03-28T19:58:05.997504Z",
      "apogee_km": 475.8738513567232,
      "perigee_km": 474.5079831028197,
      "latitude_deg": 9.64608009246335e-06,
      "longitude_deg": 169.57171140548957,
      "height_km": 476.27027587623155,
      "semi_major_axis_km": 6853.327917229772,
      "eccentricity": 9.965e-05,
      "inclination_deg": 53.1598,
      "raan_deg": 295.3435,
      "arg_perigee_deg": 105.3593,
      "mean_anomaly_deg": 254.7518,
      "mean_motion_rev_day": 15.30208089
    },
    {
      "epoch": "2026-03-29T22:37:00.455232Z",
      "apogee_km": 475.9598520651043,
      "perigee_km": 474.38907307788213,
      "latitude_deg": -1.0182092056953222e-06,
      "longitude_deg": 123.5964832897662,
      "height_km": 475.93672454240385,
      "semi_major_axis_km": 6853.3114625714925,
      "eccentricity": 0.0001146,
      "inclination_deg": 53.1584,
      "raan_deg": 290.1896,
      "arg_perigee_deg": 80.04,
      "mean_anomaly_deg": 280.073,
      "mean_motion_rev_day": 15.302136
    },
    {
      "epoch": "2026-03-30T06:27:16.593984Z",
      "apogee_km": 476.11704073663077,
      "perigee_km": 474.2488257228324,
      "latitude_deg": 4.441217760134594e-06,
      "longitude_deg": 4.188755219138953,
      "height_km": 476.18484767674875,
      "semi_major_axis_km": 6853.319933229731,
      "eccentricity": 0.0001363,
      "inclination_deg": 53.1583,
      "raan_deg": 288.671,
      "arg_perigee_deg": 96.4008,
      "mean_anomaly_deg": 263.7148,
      "mean_motion_rev_day": 15.30210763
    },
    {
      "epoch": "2026-03-30T20:33:45.353088Z",
      "apogee_km": 475.9817036028926,
      "perigee_km": 474.3740529987408,
      "latitude_deg": 2.289254730973249e-05,
      "longitude_deg": 149.25964554098374,
      "height_km": 476.0160711667392,
      "semi_major_axis_km": 6853.314878300816,
      "eccentricity": 0.00011729,
      "inclination_deg": 53.158,
      "raan_deg": 285.9411,
      "arg_perigee_deg": 85.7331,
      "mean_anomaly_deg": 274.3804,
      "mean_motion_rev_day": 15.30212456
    },
    {
      "epoch": "2026-03-31T05:58:04.579968Z",
      "apogee_km": 476.07463073895997,
      "perigee_km": 474.30236076575784,
      "latitude_deg": -4.342579535993855e-05,
      "longitude_deg": 5.972221020359762,
      "height_km": 476.1460663730134,
      "semi_major_axis_km": 6853.325495752359,
      "eccentricity": 0.0001293,
      "inclination_deg": 53.1577,
      "raan_deg": 284.1201,
      "arg_perigee_deg": 93.867,
      "mean_anomaly_deg": 266.2478,
      "mean_motion_rev_day": 15.302089
    },
    {
      "epoch": "2026-03-31T21:38:36.470400Z",
      "apogee_km": 475.65670317110107,
      "perigee_km": 474.7373969416258,
      "latitude_deg": 9.26959674099089e-06,
      "longitude_deg": 127.16361345976595,
      "height_km": 476.3396761515122,
      "semi_major_axis_km": 6853.334050056363,
      "eccentricity": 6.707e-05,
      "inclination_deg": 53.157,
      "raan_deg": 281.0881,
      "arg_perigee_deg": 122.0544,
      "mean_anomaly_deg": 238.0522,
      "mean_motion_rev_day": 15.30206035
    },
    {
      "epoch": "2026-04-02T19:06:08.911008Z",
      "apogee_km": 476.11697066259603,
      "perigee_km": 474.1761207624495,
      "latitude_deg": -4.067712976561764e-05,
      "longitude_deg": 154.61077371385343,
      "height_km": 475.9748522546446,
      "semi_major_axis_km": 6853.283545712522,
      "eccentricity": 0.0001416,
      "inclination_deg": 53.1557,
      "raan_deg": 272.2874,
      "arg_perigee_deg": 85.9152,
      "mean_anomaly_deg": 274.201,
      "mean_motion_rev_day": 15.3022295
    },
    {
      "epoch": "2026-04-02T19:06:08.911872Z",
      "apogee_km": 476.11683359692415,
      "perigee_km": 474.17625782812047,
      "latitude_deg": -3.882410125773057e-05,
      "longitude_deg": 154.6107714847816,
      "height_km": 475.9748620160391,
      "semi_major_axis_km": 6853.283545712522,
      "eccentricity": 0.00014158,
      "inclination_deg": 53.1557,
      "raan_deg": 272.2874,
      "arg_perigee_deg": 85.9152,
      "mean_anomaly_deg": 274.201,
      "mean_motion_rev_day": 15.3022295
    },
    {
      "epoch": "2026-04-03T18:36:57.209760Z",
      "apogee_km": 475.97374121087705,
      "perigee_km": 474.6743249990004,
      "latitude_deg": 2.1864659077307153e-06,
      "longitude_deg": 156.39299924314986,
      "height_km": 476.12196261995285,
      "semi_major_axis_km": 6853.461033104938,
      "eccentricity": 9.48e-05,
      "inclination_deg": 53.1572,
      "raan_deg": 267.7365,
      "arg_perigee_deg": 81.121,
      "mean_anomaly_deg": 278.9898,
      "mean_motion_rev_day": 15.30163507
    },
    {
      "epoch": "2026-04-04T16:33:42.702912Z",
      "apogee_km": 475.9213065751446,
      "perigee_km": 474.51088650787733,
      "latitude_deg": -7.787893958903912e-06,
      "longitude_deg": -177.94435263669342,
      "height_km": 475.8843137296875,
      "semi_major_axis_km": 6853.353096541511,
      "eccentricity": 0.0001029,
      "inclination_deg": 53.1577,
      "raan_deg": 263.49,
      "arg_perigee_deg": 70.9636,
      "mean_anomaly_deg": 289.1476,
      "mean_motion_rev_day": 15.30199656
    },
    {
      "epoch": "2026-04-05T14:30:26.282304Z",
      "apogee_km": 475.893390231372,
      "perigee_km": 474.6644356898605,
      "latitude_deg": -3.8942050633986364e-05,
      "longitude_deg": -152.27372516978227,
      "height_km": 475.76346002985036,
      "semi_major_axis_km": 6853.415912960616,
      "eccentricity": 8.966e-05,
      "inclination_deg": 53.158,
      "raan_deg": 259.2435,
      "arg_perigee_deg": 47.6275,
      "mean_anomaly_deg": 312.4801,
      "mean_motion_rev_day": 15.30178618
    },
    {
      "epoch": "2026-04-05T20:46:39.460800Z",
      "apogee_km": 476.10223213422796,
      "perigee_km": 474.42314921001343,
      "latitude_deg": 3.7415779651601465e-05,
      "longitude_deg": 112.19940766214717,
      "height_km": 475.8579563441853,
      "semi_major_axis_km": 6853.39969067212,
      "eccentricity": 0.0001225,
      "inclination_deg": 53.1577,
      "raan_deg": 258.029,
      "arg_perigee_deg": 68.8636,
      "mean_anomaly_deg": 291.2496,
      "mean_motion_rev_day": 15.30184051
    },
    {
      "epoch": "2026-04-07T19:48:15.432768Z",
      "apogee_km": 476.0370730055274,
      "perigee_km": 474.3936391105444,
      "latitude_deg": -1.1333753330330546e-06,
      "longitude_deg": 115.76707434387436,
      "height_km": 476.01147707302783,
      "semi_major_axis_km": 6853.352356058035,
      "eccentricity": 0.0001199,
      "inclination_deg": 53.159,
      "raan_deg": 248.9279,
      "arg_perigee_deg": 82.8724,
      "mean_anomaly_deg": 277.2413,
      "mean_motion_rev_day": 15.30199904
    },
    {
      "epoch": "2026-04-08T16:10:57.163008Z",
      "apogee_km": 476.25748190050035,
      "perigee_km": 474.14528301102655,
      "latitude_deg": 2.6412831812325752e-05,
      "longitude_deg": 165.31191093720207,
      "height_km": 475.95686026665265,
      "semi_major_axis_km": 6853.338382455763,
      "eccentricity": 0.0001541,
      "inclination_deg": 53.161,
      "raan_deg": 244.9835,
      "arg_perigee_deg": 82.2537,
      "mean_anomaly_deg": 277.8639,
      "mean_motion_rev_day": 15.30204584
    },
    {
      "epoch": "2026-04-09T15:41:44.831040Z",
      "apogee_km": 476.6304279608421,
      "perigee_km": 473.7054374155696,
      "latitude_deg": -1.710908197963254e-05,
      "longitude_deg": 167.09460430424926,
      "height_km": 476.09656374147886,
      "semi_major_axis_km": 6853.304932688206,
      "eccentricity": 0.0002134,
      "inclination_deg": 53.1597,
      "raan_deg": 240.4305,
      "arg_perigee_deg": 91.2465,
      "mean_anomaly_deg": 268.878,
      "mean_motion_rev_day": 15.30215787
    },
    {
      "epoch": "2026-04-11T17:51:27.426816Z",
      "apogee_km": 476.13584035596614,
      "perigee_km": 474.2552859006446,
      "latitude_deg": 4.825127431246201e-05,
      "longitude_deg": 122.90009280524652,
      "height_km": 476.17299948470395,
      "semi_major_axis_km": 6853.332563128305,
      "eccentricity": 0.0001372,
      "inclination_deg": 53.16,
      "raan_deg": 230.7235,
      "arg_perigee_deg": 94.8502,
      "mean_anomaly_deg": 265.2656,
      "mean_motion_rev_day": 15.30206533
    },
    {
      "epoch": "2026-04-13T07:28:44.029344Z",
      "apogee_km": 476.1924223803935,
      "perigee_km": 474.2126296581173,
      "latitude_deg": -1.5316231401903956e-05,
      "longitude_deg": -90.24608348671244,
      "height_km": 476.08380083278746,
      "semi_major_axis_km": 6853.339526019256,
      "eccentricity": 0.00014444,
      "inclination_deg": 53.1584,
      "raan_deg": 223.4416,
      "arg_perigee_deg": 89.0512,
      "mean_anomaly_deg": 271.0654,
      "mean_motion_rev_day": 15.30204201
    },
    {
      "epoch": "2026-04-14T16:23:51.099648Z",
      "apogee_km": 476.1112041902188,
      "perigee_km": 474.35125922831685,
      "latitude_deg": -1.9443324117665117e-05,
      "longitude_deg": 128.25263515249225,
      "height_km": 476.20901380869475,
      "semi_major_axis_km": 6853.368231709268,
      "eccentricity": 0.0001284,
      "inclination_deg": 53.1581,
      "raan_deg": 217.0717,
      "arg_perigee_deg": 95.2111,
      "mean_anomaly_deg": 264.9036,
      "mean_motion_rev_day": 15.30194587
    },
    {
      "epoch": "2026-04-15T14:20:35.856672Z",
      "apogee_km": 476.2198618381217,
      "perigee_km": 474.2008657047545,
      "latitude_deg": -1.594710901180042e-05,
      "longitude_deg": 153.9169712541797,
      "height_km": 475.9852272762902,
      "semi_major_axis_km": 6853.347363771438,
      "eccentricity": 0.0001473,
      "inclination_deg": 53.1575,
      "raan_deg": 212.8238,
      "arg_perigee_deg": 83.0197,
      "mean_anomaly_deg": 277.0971,
      "mean_motion_rev_day": 15.30201576
    }
  ]
}